{"type": "FeatureCollection", "features": [ {"type": "Feature", "properties": {"norad_id": 44804, "name": "CARTOSAT-3", "group": "resource", "lat": 81.25104932370644, "lon": -4.70098034855816, "alt_km": 492.09012140710274, "timestamp": "2025-12-20T03:42:47.049887+00:00", "meta": {"OBJECT_NAME": "CARTOSAT-3", "OBJECT_ID": "2019-081A", "EPOCH": "2025-12-19T19:26:07.837152", "MEAN_MOTION": 15.1920712, "ECCENTRICITY": 0.0014015, "INCLINATION": 97.4581, "RA_OF_ASC_NODE": 53.3035, "ARG_OF_PERICENTER": 61.1173, "MEAN_ANOMALY": 299.1466, "EPHEMERIS_TYPE": 0, "CLASSIFICATION_TYPE": "U", "NORAD_CAT_ID": 44804, "ELEMENT_SET_NO": 999, "REV_AT_EPOCH": 33623, "BSTAR": 0.00011966, "MEAN_MOTION_DOT": 2.456e-05, "MEAN_MOTION_DDOT": 0}, "tle": {"line1": "1 44804U 19081A   25353.80981293  .00002456  00000+0  11966-3 0  9999", "line2": "2 44804  97.4581  53.3035 0014015  61.1173 299.1466 15.19207120336237"}}, "geometry": {"type": "Point", "coordinates": [-4.70098034855816, 81.25104932370644]}}, {"type": "Feature", "properties": {"norad_id": 44819, "name": "GAOFEN-12 01", "group": "resource", "lat": -61.49750740162145, "lon": 165.5954055008514, "alt_km": 633.5318456827063, "timestamp": "2025-12-20T03:42:47.049897+00:00", "meta": {"OBJECT_NAME": "GAOFEN-12 01", "OBJECT_ID": "2019-082A", "EPOCH": "2025-12-19T21:45:20.680704", "MEAN_MOTION": 14.80665173, "ECCENTRICITY": 0.0001789, "INCLINATION": 97.8124, "RA_OF_ASC_NODE": 359.9994, "ARG_OF_PERICENTER": 197.2949, "MEAN_ANOMALY": 162.8203, "EPHEMERIS_TYPE": 0, "CLASSIFICATION_TYPE": "U", "NORAD_CAT_ID": 44819, "ELEMENT_SET_NO": 999, "REV_AT_EPOCH": 32756, "BSTAR": 5.1244e-05, "MEAN_MOTION_DOT": 3.43e-06, "MEAN_MOTION_DDOT": 0}, "tle": {"line1": "1 44819U 19082A   25353.90648936  .00000343  00000+0  51244-4 0  9998", "line2": "2 44819  97.8124 359.9994 0001789 197.2949 162.8203 14.80665173327569"}}, "geometry": {"type": "Point", "coordinates": [165.5954055008514, -61.49750740162145]}}, {"type": "Feature", "properties": {"norad_id": 44873, "name": "CSG-1", "group": "resource", "lat": 32.72190519925798, "lon": 170.2613420410452, "alt_km": 619.96645832796, "timestamp": "2025-12-20T03:42:47.049907+00:00", "meta": {"OBJECT_NAME": "CSG-1", "OBJECT_ID": "2019-092A", "EPOCH": "2025-12-19T19:27:46.974240", "MEAN_MOTION": 14.82149247, "ECCENTRICITY": 0.0001488, "INCLINATION": 97.8803, "RA_OF_ASC_NODE": 175.0286, "ARG_OF_PERICENTER": 86.1063, "MEAN_ANOMALY": 274.0321, "EPHEMERIS_TYPE": 0, "CLASSIFICATION_TYPE": "U", "NORAD_CAT_ID": 44873, "ELEMENT_SET_NO": 999, "REV_AT_EPOCH": 32490, "BSTAR": 5.7885e-05, "MEAN_MOTION_DOT": 4.09e-06, "MEAN_MOTION_DDOT": 0}, "tle": {"line1": "1 44873U 19092A   25353.81096035  .00000409  00000+0  57885-4 0  9996", "line2": "2 44873  97.8803 175.0286 0001488  86.1063 274.0321 14.82149247324906"}}, "geometry": {"type": "Point", "coordinates": [170.2613420410452, 32.72190519925798]}}, {"type": "Feature", "properties": {"norad_id": 46277, "name": "NEMO-HD", "group": "resource", "lat": -55.21767217858743, "lon": 63.676405605651546, "alt_km": 452.08966719752243, "timestamp": "2025-12-20T03:42:47.049917+00:00", "meta": {"OBJECT_NAME": "NEMO-HD", "OBJECT_ID": "2020-061F", "EPOCH": "2025-12-19T20:09:37.221696", "MEAN_MOTION": 15.40465715, "ECCENTRICITY": 0.0001429, "INCLINATION": 97.2205, "RA_OF_ASC_NODE": 52.8481, "ARG_OF_PERICENTER": 51.6082, "MEAN_ANOMALY": 308.5293, "EPHEMERIS_TYPE": 0, "CLASSIFICATION_TYPE": "U", "NORAD_CAT_ID": 46277, "ELEMENT_SET_NO": 999, "REV_AT_EPOCH": 29433, "BSTAR": 0.0001857, "MEAN_MOTION_DOT": 7.44e-05, "MEAN_MOTION_DDOT": 0}, "tle": {"line1": "1 46277U 20061F   25353.84001414  .00007440  00000+0  18570-3 0  9993", "line2": "2 46277  97.2205  52.8481 0001429  51.6082 308.5293 15.40465715294338"}}, "geometry": {"type": "Point", "coordinates": [63.676405605651546, -55.21767217858743]}}, {"type": "Feature", "properties": {"norad_id": 46984, "name": "SENTINEL-6A", "group": "resource", "lat": 66.00008031721109, "lon": -126.00097226190267, "alt_km": 1336.3814357712117, "timestamp": "2025-12-20T03:42:47.049927+00:00", "meta": {"OBJECT_NAME": "SENTINEL-6A", "OBJECT_ID": "2020-086A", "EPOCH": "2025-12-19T19:45:19.960416", "MEAN_MOTION": 12.80930846, "ECCENTRICITY": 0.0007715, "INCLINATION": 66.0393, "RA_OF_ASC_NODE": 147.5954, "ARG_OF_PERICENTER": 269.316, "MEAN_ANOMALY": 90.6971, "EPHEMERIS_TYPE": 0, "CLASSIFICATION_TYPE": "U", "NORAD_CAT_ID": 46984, "ELEMENT_SET_NO": 999, "REV_AT_EPOCH": 23735, "BSTAR": -1.8193e-05, "MEAN_MOTION_DOT": -6.5e-07, "MEAN_MOTION_DDOT": 0}, "tle": {"line1": "1 46984U 20086A   25353.82314769 -.00000065  00000+0 -18193-4 0  9993", "line2": "2 46984  66.0393 147.5954 0007715 269.3160  90.6971 12.80930846237355"}}, "geometry": {"type": "Point", "coordinates": [-126.00097226190267, 66.00008031721109]}}, {"type": "Feature", "properties": {"norad_id": 48079, "name": "GAOFEN-12 02", "group": "resource", "lat": -72.47327896690255, "lon": 141.73496715483878, "alt_km": 636.9380386549765, "timestamp": "2025-12-20T03:42:47.049937+00:00", "meta": {"OBJECT_NAME": "GAOFEN-12 02", "OBJECT_ID": "2021-026A", "EPOCH": "2025-12-19T20:04:50.430720", "MEAN_MOTION": 14.80683033, "ECCENTRICITY": 0.0003594, "INCLINATION": 97.9853, "RA_OF_ASC_NODE": 347.8089, "ARG_OF_PERICENTER": 86.9837, "MEAN_ANOMALY": 273.1786, "EPHEMERIS_TYPE": 0, "CLASSIFICATION_TYPE": "U", "NORAD_CAT_ID": 48079, "ELEMENT_SET_NO": 999, "REV_AT_EPOCH": 25522, "BSTAR": 5.2368e-05, "MEAN_MOTION_DOT": 3.5e-06, "MEAN_MOTION_DDOT": 0}, "tle": {"line1": "1 48079U 21026A   25353.83669480  .00000350  00000+0  52368-4 0  9996", "line2": "2 48079  97.9853 347.8089 0003594  86.9837 273.1786 14.80683033255228"}}, "geometry": {"type": "Point", "coordinates": [141.73496715483878, -72.47327896690255]}}, {"type": "Feature", "properties": {"norad_id": 48268, "name": "PLEIADES NEO 3", "group": "resource", "lat": -12.330514922169055, "lon": 68.22779552439131, "alt_km": 628.6902553613227, "timestamp": "2025-12-20T03:42:47.049947+00:00", "meta": {"OBJECT_NAME": "PLEIADES NEO 3", "OBJECT_ID": "2021-034A", "EPOCH": "2025-12-19T21:17:09.626208", "MEAN_MOTION": 14.81672476, "ECCENTRICITY": 0.0001331, "INCLINATION": 97.8951, "RA_OF_ASC_NODE": 66.2256, "ARG_OF_PERICENTER": 88.6165, "MEAN_ANOMALY": 271.52, "EPHEMERIS_TYPE": 0, "CLASSIFICATION_TYPE": "U", "NORAD_CAT_ID": 48268, "ELEMENT_SET_NO": 999, "REV_AT_EPOCH": 25110, "BSTAR": 9.1581e-05, "MEAN_MOTION_DOT": 6.69e-06, "MEAN_MOTION_DDOT": 0}, "tle": {"line1": "1 48268U 21034A   25353.88691697  .00000669  00000+0  91581-4 0  9998", "line2": "2 48268  97.8951  66.2256 0001331  88.6165 271.5200 14.81672476251100"}}, "geometry": {"type": "Point", "coordinates": [68.22779552439131, -12.330514922169055]}}, {"type": "Feature", "properties": {"norad_id": 49070, "name": "PLEIADES NEO 4", "group": "resource", "lat": 11.998037306222026, "lon": -111.82421457037452, "alt_km": 625.1751483870239, "timestamp": "2025-12-20T03:42:47.049957+00:00", "meta": {"OBJECT_NAME": "PLEIADES NEO 4", "OBJECT_ID": "2021-073E", "EPOCH": "2025-12-19T20:28:31.109376", "MEAN_MOTION": 14.81672903, "ECCENTRICITY": 0.0001326, "INCLINATION": 97.8951, "RA_OF_ASC_NODE": 66.1886, "ARG_OF_PERICENTER": 91.607, "MEAN_ANOMALY": 268.5295, "EPHEMERIS_TYPE": 0, "CLASSIFICATION_TYPE": "U", "NORAD_CAT_ID": 49070, "ELEMENT_SET_NO": 999, "REV_AT_EPOCH": 23481, "BSTAR": -2.1346e-05, "MEAN_MOTION_DOT": -2.2e-06, "MEAN_MOTION_DDOT": 0}, "tle": {"line1": "1 49070U 21073E   25353.85313784 -.00000220  00000+0 -21346-4 0  9995", "line2": "2 49070  97.8951  66.1886 0001326  91.6070 268.5295 14.81672903234817"}}, "geometry": {"type": "Point", "coordinates": [-111.82421457037452, 11.998037306222026]}}, {"type": "Feature", "properties": {"norad_id": 49260, "name": "LANDSAT 9", "group": "resource", "lat": -68.17160003081946, "lon": -138.9661174821268, "alt_km": 710.5329144865136, "timestamp": "2025-12-20T03:42:47.049967+00:00", "meta": {"OBJECT_NAME": "LANDSAT 9", "OBJECT_ID": "2021-088A", "EPOCH": "2025-12-19T15:02:03.183936", "MEAN_MOTION": 14.57104632, "ECCENTRICITY": 0.0001115, "INCLINATION": 98.2087, "RA_OF_ASC_NODE": 61.6374, "ARG_OF_PERICENTER": 91.1885, "MEAN_ANOMALY": 268.9441, "EPHEMERIS_TYPE": 0, "CLASSIFICATION_TYPE": "U", "NORAD_CAT_ID": 49260, "ELEMENT_SET_NO": 999, "REV_AT_EPOCH": 22485, "BSTAR": 8.05e-05, "MEAN_MOTION_DOT": 3.17e-06, "MEAN_MOTION_DDOT": 0}, "tle": {"line1": "1 49260U 21088A   25353.62642574  .00000317  00000+0  80500-4 0  9991", "line2": "2 49260  98.2087  61.6374 0001115  91.1885 268.9441 14.57104632224852"}}, "geometry": {"type": "Point", "coordinates": [-138.9661174821268, -68.17160003081946]}}, {"type": "Feature", "properties": {"norad_id": 51444, "name": "CSG-2", "group": "resource", "lat": -32.95680805723337, "lon": -9.786149402544284, "alt_km": 629.3646159638574, "timestamp": "2025-12-20T03:42:47.049977+00:00", "meta": {"OBJECT_NAME": "CSG-2", "OBJECT_ID": "2022-008A", "EPOCH": "2025-12-19T20:16:23.287872", "MEAN_MOTION": 14.82149464, "ECCENTRICITY": 0.0001445, "INCLINATION": 97.8798, "RA_OF_ASC_NODE": 175.0603, "ARG_OF_PERICENTER": 84.2021, "MEAN_ANOMALY": 275.9357, "EPHEMERIS_TYPE": 0, "CLASSIFICATION_TYPE": "U", "NORAD_CAT_ID": 51444, "ELEMENT_SET_NO": 999, "REV_AT_EPOCH": 21002, "BSTAR": 8.4468e-06, "MEAN_MOTION_DOT": 1.5e-07, "MEAN_MOTION_DDOT": 0}, "tle": {"line1": "1 51444U 22008A   25353.84471398  .00000015  00000+0  84468-5 0  9992", "line2": "2 51444  97.8798 175.0603 0001445  84.2021 275.9357 14.82149464210027"}}, "geometry": {"type": "Point", "coordinates": [-9.786149402544284, -32.95680805723337]}}]}